0 DMSP 5D-2 F11 DEB
1 28334U 91082AX  13280.81691801  .00002708  00000-0  14211-2 0  9446
2 28334 098.8006 227.7633 0088798 301.7474 085.0477 14.13016424484080
0 DMSP 5D-2 F11 DEB
1 28334U 91082AX  13282.32908116  .00003772  00000-0  19699-2 0  9452
2 28334 098.8010 229.2496 0088658 297.4214 217.2609 14.13031893484293
0 DMSP 5D-2 F11 DEB
1 28334U 91082AX  13288.34776164  .00004320  00000-0  22521-2 0  9476
2 28334 098.8015 235.1691 0087959 280.1999 234.2626 14.13068562485149
0 DMSP 5D-2 F11 DEB
1 28334U 91082AX  13291.32280950  .00004033  00000-0  21038-2 0  9485
2 28334 098.8021 238.0950 0087697 271.6806 248.6582 14.13090005485560
0 DMSP 5D-2 F11 DEB
1 28334U 91082AX  13294.71295407  .00004451  00000-0  23191-2 0  9491
2 28334 098.8027 241.4291 0087282 261.9117 215.0498 14.13114084486041
